{
  "type": "FeatureCollection",
  "features": [
    {
      "type": "Feature",
      "properties": {
        "norad_id": 65731,
        "name": "1998-067XK",
        "group": "stations",
        "lat": 49.94823394648486,
        "lon": -140.02127286249487,
        "alt_km": 369.1994158203688,
        "timestamp": "2025-12-10T07:43:53.564686+00:00",
        "meta_object_name": "1998-067XK",
        "meta_object_id": "1998-067XK",
        "meta_epoch": "2025-12-09T11:28:42.048480",
        "meta_mean_motion": 15.6489001,
        "meta_eccentricity": 0.00052455,
        "meta_inclination": 51.6282,
        "meta_ra_of_asc_node": 153.7695,
        "meta_arg_of_pericenter": 225.0581,
        "meta_mean_anomaly": 134.9989,
        "meta_ephemeris_type": 0,
        "meta_classification_type": "U",
        "meta_norad_cat_id": 65731,
        "meta_element_set_no": 999,
        "meta_rev_at_epoch": 1263,
        "meta_bstar": 0.0011288356,
        "meta_mean_motion_dot": 0.00113689,
        "meta_mean_motion_ddot": 0,
        "tle_line1": "1 65731U 98067XK  25343.47826445  .00113689  00000+0  11288-2 0  9998",
        "tle_line2": "2 65731  51.6282 153.7695 0005245 225.0581 134.9989 15.64890010 12632"
      },
      "geometry": {
        "type": "Point",
        "coordinates": [
          -140.02127286249487,
          49.94823394648486
        ]
      }
    },
    {
      "type": "Feature",
      "properties": {
        "norad_id": 65732,
        "name": "RSP-03",
        "group": "stations",
        "lat": 19.899395738047062,
        "lon": 165.50914084530825,
        "alt_km": 366.72634047817246,
        "timestamp": "2025-12-10T07:43:53.564696+00:00",
        "meta_object_name": "RSP-03",
        "meta_object_id": "1998-067XL",
        "meta_epoch": "2025-12-09T17:51:10.941696",
        "meta_mean_motion": 15.67593888,
        "meta_eccentricity": 0.0006023,
        "meta_inclination": 51.6263,
        "meta_ra_of_asc_node": 151.784,
        "meta_arg_of_pericenter": 230.5682,
        "meta_mean_anomaly": 129.4781,
        "meta_ephemeris_type": 0,
        "meta_classification_type": "U",
        "meta_norad_cat_id": 65732,
        "meta_element_set_no": 999,
        "meta_rev_at_epoch": 1269,
        "meta_bstar": 0.0013107,
        "meta_mean_motion_dot": 0.00147964,
        "meta_mean_motion_ddot": 0,
        "tle_line1": "1 65732U 98067XL  25343.74387664  .00147964  00000+0  13107-2 0  9999",
        "tle_line2": "2 65732  51.6263 151.7840 0006023 230.5682 129.4781 15.67593888 12691"
      },
      "geometry": {
        "type": "Point",
        "coordinates": [
          165.50914084530825,
          19.899395738047062
        ]
      }
    },
    {
      "type": "Feature",
      "properties": {
        "norad_id": 65733,
        "name": "GHS-01",
        "group": "stations",
        "lat": -47.96871757728904,
        "lon": 29.147246079670566,
        "alt_km": 349.0279783736896,
        "timestamp": "2025-12-10T07:43:53.564706+00:00",
        "meta_object_name": "GHS-01",
        "meta_object_id": "1998-067XM",
        "meta_epoch": "2025-12-09T18:28:18.827040",
        "meta_mean_motion": 15.73188946,
        "meta_eccentricity": 0.0006938,
        "meta_inclination": 51.6282,
        "meta_ra_of_asc_node": 150.4557,
        "meta_arg_of_pericenter": 260.0742,
        "meta_mean_anomaly": 99.9474,
        "meta_ephemeris_type": 0,
        "meta_classification_type": "U",
        "meta_norad_cat_id": 65733,
        "meta_element_set_no": 999,
        "meta_rev_at_epoch": 1271,
        "meta_bstar": 0.0015642,
        "meta_mean_motion_dot": 0.00225395,
        "meta_mean_motion_ddot": 0,
        "tle_line1": "1 65733U 98067XM  25343.76966235  .00225395  00000+0  15642-2 0  9990",
        "tle_line2": "2 65733  51.6282 150.4557 0006938 260.0742  99.9474 15.73188946 12719"
      },
      "geometry": {
        "type": "Point",
        "coordinates": [
          29.147246079670566,
          -47.96871757728904
        ]
      }
    },
    {
      "type": "Feature",
      "properties": {
        "norad_id": 65941,
        "name": "YOTSUBA-KULOVER",
        "group": "stations",
        "lat": -48.43477467607305,
        "lon": 35.449001109789826,
        "alt_km": 394.20420337672203,
        "timestamp": "2025-12-10T07:43:53.564718+00:00",
        "meta_object_name": "YOTSUBA-KULOVER",
        "meta_object_id": "1998-067XN",
        "meta_epoch": "2025-12-09T12:11:24.743328",
        "meta_mean_motion": 15.58849812,
        "meta_eccentricity": 0.00016122,
        "meta_inclination": 51.6274,
        "meta_ra_of_asc_node": 156.2142,
        "meta_arg_of_pericenter": 216.6617,
        "meta_mean_anomaly": 143.4266,
        "meta_ephemeris_type": 0,
        "meta_classification_type": "U",
        "meta_norad_cat_id": 65941,
        "meta_element_set_no": 999,
        "meta_rev_at_epoch": 935,
        "meta_bstar": 0.0010220852,
        "meta_mean_motion_dot": 0.0008095,
        "meta_mean_motion_ddot": 0,
        "tle_line1": "1 65941U 98067XN  25343.50792527  .00080950  00000+0  10221-2 0  9998",
        "tle_line2": "2 65941  51.6274 156.2142 0001612 216.6617 143.4266 15.58849812  9356"
      },
      "geometry": {
        "type": "Point",
        "coordinates": [
          35.449001109789826,
          -48.43477467607305
        ]
      }
    },
    {
      "type": "Feature",
      "properties": {
        "norad_id": 65942,
        "name": "BOTAN",
        "group": "stations",
        "lat": -9.765018580843579,
        "lon": -20.662579943538294,
        "alt_km": 381.1924895842558,
        "timestamp": "2025-12-10T07:43:53.564729+00:00",
        "meta_object_name": "BOTAN",
        "meta_object_id": "1998-067XP",
        "meta_epoch": "2025-12-09T12:29:10.787136",
        "meta_mean_motion": 15.61959609,
        "meta_eccentricity": 0.00035005,
        "meta_inclination": 51.628,
        "meta_ra_of_asc_node": 155.5477,
        "meta_arg_of_pericenter": 212.819,
        "meta_mean_anomaly": 147.2587,
        "meta_ephemeris_type": 0,
        "meta_classification_type": "U",
        "meta_norad_cat_id": 65942,
        "meta_element_set_no": 999,
        "meta_rev_at_epoch": 936,
        "meta_bstar": 0.00138053,
        "meta_mean_motion_dot": 0.00124109,
        "meta_mean_motion_ddot": 0,
        "tle_line1": "1 65942U 98067XP  25343.52026374  .00124109  00000+0  13805-2 0  9997",
        "tle_line2": "2 65942  51.6280 155.5477 0003500 212.8190 147.2587 15.61959609  9368"
      },
      "geometry": {
        "type": "Point",
        "coordinates": [
          -20.662579943538294,
          -9.765018580843579
        ]
      }
    },
    {
      "type": "Feature",
      "properties": {
        "norad_id": 65943,
        "name": "E-KAGAKU-1",
        "group": "stations",
        "lat": -48.25411744764275,
        "lon": 34.7317113779095,
        "alt_km": 394.66072985806386,
        "timestamp": "2025-12-10T07:43:53.564739+00:00",
        "meta_object_name": "E-KAGAKU-1",
        "meta_object_id": "1998-067XQ",
        "meta_epoch": "2025-12-08T17:43:35.861664",
        "meta_mean_motion": 15.58651727,
        "meta_eccentricity": 0.00029774,
        "meta_inclination": 51.6297,
        "meta_ra_of_asc_node": 160.0822,
        "meta_arg_of_pericenter": 178.8942,
        "meta_mean_anomaly": 181.2057,
        "meta_ephemeris_type": 0,
        "meta_classification_type": "U",
        "meta_norad_cat_id": 65943,
        "meta_element_set_no": 999,
        "meta_rev_at_epoch": 923,
        "meta_bstar": 0.00085624806,
        "meta_mean_motion_dot": 0.00067115,
        "meta_mean_motion_ddot": 0,
        "tle_line1": "1 65943U 98067XQ  25342.73860951  .00067115  00000+0  85625-3 0  9990",
        "tle_line2": "2 65943  51.6297 160.0822 0002977 178.8942 181.2057 15.58651727  9237"
      },
      "geometry": {
        "type": "Point",
        "coordinates": [
          34.7317113779095,
          -48.25411744764275
        ]
      }
    },
    {
      "type": "Feature",
      "properties": {
        "norad_id": 66052,
        "name": "HRC MONOBLOCK CAMERA",
        "group": "stations",
        "lat": -50.06144865583239,
        "lon": 82.41745088201459,
        "alt_km": 410.79174991179207,
        "timestamp": "2025-12-10T07:43:53.564749+00:00",
        "meta_object_name": "HRC MONOBLOCK CAMERA",
        "meta_object_id": "1998-067XR",
        "meta_epoch": "2025-12-09T18:10:29.332416",
        "meta_mean_motion": 15.53817213,
        "meta_eccentricity": 0.0003757,
        "meta_inclination": 51.6293,
        "meta_ra_of_asc_node": 156.375,
        "meta_arg_of_pericenter": 171.9059,
        "meta_mean_anomaly": 188.1993,
        "meta_ephemeris_type": 0,
        "meta_classification_type": "U",
        "meta_norad_cat_id": 66052,
        "meta_element_set_no": 999,
        "meta_rev_at_epoch": 837,
        "meta_bstar": 0.00070101,
        "meta_mean_motion_dot": 0.00045676,
        "meta_mean_motion_ddot": 0,
        "tle_line1": "1 66052U 98067XR  25343.75728394  .00045676  00000+0  70101-3 0  9990",
        "tle_line2": "2 66052  51.6293 156.3750 0003757 171.9059 188.1993 15.53817213  8371"
      },
      "geometry": {
        "type": "Point",
        "coordinates": [
          82.41745088201459,
          -50.06144865583239
        ]
      }
    }
  ]
}